{"type": "FeatureCollection", "features": [ {"type": "Feature", "properties": {"norad_id": 30703, "name": "FENGYUN 1C DEB", "group": "fengyun-1c-debris", "lat": -1.899453047538476, "lon": -24.61548889840206, "alt_km": 808.1746575385496, "timestamp": "2025-12-15T22:44:29.206227+00:00", "meta": {"OBJECT_NAME": "FENGYUN 1C DEB", "OBJECT_ID": "1999-025ARM", "EPOCH": "2025-12-14T21:40:26.442912", "MEAN_MOTION": 14.19338072, "ECCENTRICITY": 0.0117488, "INCLINATION": 99.142, "RA_OF_ASC_NODE": 334.001, "ARG_OF_PERICENTER": 285.9523, "MEAN_ANOMALY": 137.0266, "EPHEMERIS_TYPE": 0, "CLASSIFICATION_TYPE": "U", "NORAD_CAT_ID": 30703, "ELEMENT_SET_NO": 999, "REV_AT_EPOCH": 96571, "BSTAR": 0.0010094664, "MEAN_MOTION_DOT": 2.224e-05, "MEAN_MOTION_DDOT": 0}, "tle": {"line1": "1 30703U 99025ARM 25348.90308383  .00002224  00000+0  10095-2 0  9990", "line2": "2 30703  99.1420 334.0010 0117488 285.9523 137.0266 14.19338072965715"}}, "geometry": {"type": "Point", "coordinates": [-24.61548889840206, -1.899453047538476]}}, {"type": "Feature", "properties": {"norad_id": 30704, "name": "FENGYUN 1C DEB", "group": "fengyun-1c-debris", "lat": 76.41051887330019, "lon": -151.14348705187905, "alt_km": 820.8341682057262, "timestamp": "2025-12-15T22:44:29.206237+00:00", "meta": {"OBJECT_NAME": "FENGYUN 1C DEB", "OBJECT_ID": "1999-025ARN", "EPOCH": "2025-12-14T22:34:00.139296", "MEAN_MOTION": 14.02051179, "ECCENTRICITY": 0.00817337, "INCLINATION": 98.8726, "RA_OF_ASC_NODE": 347.6215, "ARG_OF_PERICENTER": 93.7762, "MEAN_ANOMALY": 325.0508, "EPHEMERIS_TYPE": 0, "CLASSIFICATION_TYPE": "U", "NORAD_CAT_ID": 30704, "ELEMENT_SET_NO": 999, "REV_AT_EPOCH": 96142, "BSTAR": 0.00050535212, "MEAN_MOTION_DOT": 7.52e-06, "MEAN_MOTION_DDOT": 0}, "tle": {"line1": "1 30704U 99025ARN 25348.94027939  .00000752  00000+0  50535-3 0  9998", "line2": "2 30704  98.8726 347.6215 0081733  93.7762 325.0508 14.02051179961425"}}, "geometry": {"type": "Point", "coordinates": [-151.14348705187905, 76.41051887330019]}}, {"type": "Feature", "properties": {"norad_id": 30705, "name": "FENGYUN 1C DEB", "group": "fengyun-1c-debris", "lat": -75.61740758562986, "lon": 152.42108727665197, "alt_km": 819.6523036912895, "timestamp": "2025-12-15T22:44:29.206248+00:00", "meta": {"OBJECT_NAME": "FENGYUN 1C DEB", "OBJECT_ID": "1999-025ARP", "EPOCH": "2025-12-15T05:53:24.743328", "MEAN_MOTION": 13.81336061, "ECCENTRICITY": 0.02001442, "INCLINATION": 102.1801, "RA_OF_ASC_NODE": 94.1406, "ARG_OF_PERICENTER": 276.2231, "MEAN_ANOMALY": 111.4441, "EPHEMERIS_TYPE": 0, "CLASSIFICATION_TYPE": "U", "NORAD_CAT_ID": 30705, "ELEMENT_SET_NO": 999, "REV_AT_EPOCH": 94044, "BSTAR": 0.0020522219, "MEAN_MOTION_DOT": 2.47e-05, "MEAN_MOTION_DDOT": 0}, "tle": {"line1": "1 30705U 99025ARP 25349.24542527  .00002470  00000+0  20522-2 0  9999", "line2": "2 30705 102.1801  94.1406 0200144 276.2231 111.4441 13.81336061940447"}}, "geometry": {"type": "Point", "coordinates": [152.42108727665197, -75.61740758562986]}}, {"type": "Feature", "properties": {"norad_id": 30706, "name": "FENGYUN 1C DEB", "group": "fengyun-1c-debris", "lat": 14.46537767743374, "lon": -117.6929195534563, "alt_km": 809.2050530878905, "timestamp": "2025-12-15T22:44:29.206258+00:00", "meta": {"OBJECT_NAME": "FENGYUN 1C DEB", "OBJECT_ID": "1999-025ARQ", "EPOCH": "2025-12-15T04:09:17.082432", "MEAN_MOTION": 14.26434666, "ECCENTRICITY": 0.00266843, "INCLINATION": 99.0658, "RA_OF_ASC_NODE": 243.8663, "ARG_OF_PERICENTER": 121.2998, "MEAN_ANOMALY": 239.0799, "EPHEMERIS_TYPE": 0, "CLASSIFICATION_TYPE": "U", "NORAD_CAT_ID": 30706, "ELEMENT_SET_NO": 999, "REV_AT_EPOCH": 97662, "BSTAR": 0.00069207888, "MEAN_MOTION_DOT": 1.625e-05, "MEAN_MOTION_DDOT": 0}, "tle": {"line1": "1 30706U 99025ARQ 25349.17311438  .00001625  00000+0  69208-3 0  9993", "line2": "2 30706  99.0658 243.8663 0026684 121.2998 239.0799 14.26434666976626"}}, "geometry": {"type": "Point", "coordinates": [-117.6929195534563, 14.46537767743374]}}, {"type": "Feature", "properties": {"norad_id": 30707, "name": "FENGYUN 1C DEB", "group": "fengyun-1c-debris", "lat": -67.3895405267648, "lon": -158.91030301194303, "alt_km": 829.5461406803006, "timestamp": "2025-12-15T22:44:29.206268+00:00", "meta": {"OBJECT_NAME": "FENGYUN 1C DEB", "OBJECT_ID": "1999-025ARR", "EPOCH": "2025-12-15T03:11:23.036928", "MEAN_MOTION": 14.26704712, "ECCENTRICITY": 0.00275874, "INCLINATION": 99.4131, "RA_OF_ASC_NODE": 43.6875, "ARG_OF_PERICENTER": 63.0956, "MEAN_ANOMALY": 324.3937, "EPHEMERIS_TYPE": 0, "CLASSIFICATION_TYPE": "U", "NORAD_CAT_ID": 30707, "ELEMENT_SET_NO": 999, "REV_AT_EPOCH": 96837, "BSTAR": 0.0010523911, "MEAN_MOTION_DOT": 2.507e-05, "MEAN_MOTION_DDOT": 0}, "tle": {"line1": "1 30707U 99025ARR 25349.13290552  .00002507  00000+0  10524-2 0  9999", "line2": "2 30707  99.4131  43.6875 0027587  63.0956 324.3937 14.26704712968375"}}, "geometry": {"type": "Point", "coordinates": [-158.91030301194303, -67.3895405267648]}}, {"type": "Feature", "properties": {"norad_id": 30708, "name": "FENGYUN 1C DEB", "group": "fengyun-1c-debris", "lat": 34.55479199041031, "lon": -170.4675801286117, "alt_km": 845.1054649447115, "timestamp": "2025-12-15T22:44:29.206279+00:00", "meta": {"OBJECT_NAME": "FENGYUN 1C DEB", "OBJECT_ID": "1999-025ARS", "EPOCH": "2025-12-15T00:05:21.168672", "MEAN_MOTION": 14.12180258, "ECCENTRICITY": 0.00081669, "INCLINATION": 98.6904, "RA_OF_ASC_NODE": 2.5712, "ARG_OF_PERICENTER": 188.0208, "MEAN_ANOMALY": 201.2636, "EPHEMERIS_TYPE": 0, "CLASSIFICATION_TYPE": "U", "NORAD_CAT_ID": 30708, "ELEMENT_SET_NO": 999, "REV_AT_EPOCH": 96868, "BSTAR": 0.00015877279, "MEAN_MOTION_DOT": 2.49e-06, "MEAN_MOTION_DDOT": 0}, "tle": {"line1": "1 30708U 99025ARS 25349.00371723  .00000249  00000+0  15877-3 0  9994", "line2": "2 30708  98.6904   2.5712 0008166 188.0208 201.2636 14.12180258968680"}}, "geometry": {"type": "Point", "coordinates": [-170.4675801286117, 34.55479199041031]}}, {"type": "Feature", "properties": {"norad_id": 30709, "name": "FENGYUN 1C DEB", "group": "fengyun-1c-debris", "lat": -52.91638206566513, "lon": 135.69302649583963, "alt_km": 787.8121361043368, "timestamp": "2025-12-15T22:44:29.206289+00:00", "meta": {"OBJECT_NAME": "FENGYUN 1C DEB", "OBJECT_ID": "1999-025ART", "EPOCH": "2025-12-15T04:41:41.135136", "MEAN_MOTION": 14.17508164, "ECCENTRICITY": 0.00822776, "INCLINATION": 99.1442, "RA_OF_ASC_NODE": 327.2234, "ARG_OF_PERICENTER": 263.1496, "MEAN_ANOMALY": 96.0312, "EPHEMERIS_TYPE": 0, "CLASSIFICATION_TYPE": "U", "NORAD_CAT_ID": 30709, "ELEMENT_SET_NO": 999, "REV_AT_EPOCH": 96031, "BSTAR": 0.0017798522, "MEAN_MOTION_DOT": 3.687e-05, "MEAN_MOTION_DDOT": 0}, "tle": {"line1": "1 30709U 99025ART 25349.19561499  .00003687  00000+0  17799-2 0  9999", "line2": "2 30709  99.1442 327.2234 0082277 263.1496  96.0312 14.17508164960317"}}, "geometry": {"type": "Point", "coordinates": [135.69302649583963, -52.91638206566513]}}, {"type": "Feature", "properties": {"norad_id": 30710, "name": "FENGYUN 1C DEB", "group": "fengyun-1c-debris", "lat": -22.529754811486136, "lon": 54.97071703807696, "alt_km": 1015.9733043113392, "timestamp": "2025-12-15T22:44:29.206299+00:00", "meta": {"OBJECT_NAME": "FENGYUN 1C DEB", "OBJECT_ID": "1999-025ARU", "EPOCH": "2025-12-14T23:27:37.365984", "MEAN_MOTION": 13.94164125, "ECCENTRICITY": 0.02238456, "INCLINATION": 102.7463, "RA_OF_ASC_NODE": 239.0244, "ARG_OF_PERICENTER": 77.9335, "MEAN_ANOMALY": 296.6663, "EPHEMERIS_TYPE": 0, "CLASSIFICATION_TYPE": "U", "NORAD_CAT_ID": 30710, "ELEMENT_SET_NO": 999, "REV_AT_EPOCH": 94820, "BSTAR": 0.0020881551, "MEAN_MOTION_DOT": 3.339e-05, "MEAN_MOTION_DDOT": 0}, "tle": {"line1": "1 30710U 99025ARU 25348.97751581  .00003339  00000+0  20882-2 0  9990", "line2": "2 30710 102.7463 239.0244 0223845  77.9335 296.6663 13.94164125948205"}}, "geometry": {"type": "Point", "coordinates": [54.97071703807696, -22.529754811486136]}}, {"type": "Feature", "properties": {"norad_id": 30714, "name": "FENGYUN 1C DEB", "group": "fengyun-1c-debris", "lat": -66.9874536050138, "lon": 59.86477418626392, "alt_km": 843.5034769772737, "timestamp": "2025-12-15T22:44:29.206309+00:00", "meta": {"OBJECT_NAME": "FENGYUN 1C DEB", "OBJECT_ID": "1999-025ARY", "EPOCH": "2025-12-15T09:25:50.866176", "MEAN_MOTION": 14.03295789, "ECCENTRICITY": 0.00666361, "INCLINATION": 98.8368, "RA_OF_ASC_NODE": 37.8409, "ARG_OF_PERICENTER": 275.1481, "MEAN_ANOMALY": 95.7288, "EPHEMERIS_TYPE": 0, "CLASSIFICATION_TYPE": "U", "NORAD_CAT_ID": 30714, "ELEMENT_SET_NO": 999, "REV_AT_EPOCH": 96030, "BSTAR": 0.0004790044, "MEAN_MOTION_DOT": 7.19e-06, "MEAN_MOTION_DDOT": 0}, "tle": {"line1": "1 30714U 99025ARY 25349.39294984  .00000719  00000+0  47900-3 0  9990", "line2": "2 30714  98.8368  37.8409 0066636 275.1481  95.7288 14.03295789960300"}}, "geometry": {"type": "Point", "coordinates": [59.86477418626392, -66.9874536050138]}}, {"type": "Feature", "properties": {"norad_id": 30715, "name": "FENGYUN 1C DEB", "group": "fengyun-1c-debris", "lat": -70.96597059652963, "lon": 86.39658351554327, "alt_km": 880.2079259101265, "timestamp": "2025-12-15T22:44:29.206319+00:00", "meta": {"OBJECT_NAME": "FENGYUN 1C DEB", "OBJECT_ID": "1999-025ARZ", "EPOCH": "2025-12-15T04:25:09.968160", "MEAN_MOTION": 14.1471403, "ECCENTRICITY": 0.00677781, "INCLINATION": 98.9768, "RA_OF_ASC_NODE": 58.3592, "ARG_OF_PERICENTER": 161.4128, "MEAN_ANOMALY": 198.9543, "EPHEMERIS_TYPE": 0, "CLASSIFICATION_TYPE": "U", "NORAD_CAT_ID": 30715, "ELEMENT_SET_NO": 999, "REV_AT_EPOCH": 96216, "BSTAR": 0.0014531358, "MEAN_MOTION_DOT": 2.816e-05, "MEAN_MOTION_DDOT": 0}, "tle": {"line1": "1 30715U 99025ARZ 25349.18414315  .00002816  00000+0  14531-2 0  9993", "line2": "2 30715  98.9768  58.3592 0067778 161.4128 198.9543 14.14714030962163"}}, "geometry": {"type": "Point", "coordinates": [86.39658351554327, -70.96597059652963]}}]}